O3B FM8                 
1 40082U 14038D   17345.23108119 -.00000026  00000-0  00000-0 0  9994
2 40082   0.0321   6.0004 0002559 226.7110 127.2663  5.00115960 62497
